{
  "type": "FeatureCollection",
  "features": [
    {
      "type": "Feature",
      "properties": {
        "norad_id": 66647,
        "name": "COSMOS 2597 (RODNIK-S 22)",
        "group": "last-30-days",
        "lat": -21.170273504298347,
        "lon": 100.65722562494416,
        "alt_km": 1499.6579673037058,
        "timestamp": "2025-12-26T18:39:30.995892+00:00",
        "meta_object_name": "COSMOS 2597 (RODNIK-S 22)",
        "meta_object_id": "2025-273A",
        "meta_epoch": "2025-12-26T13:42:38.702592",
        "meta_mean_motion": 12.41952312,
        "meta_eccentricity": 0.00075999,
        "meta_inclination": 82.4993,
        "meta_ra_of_asc_node": 277.8608,
        "meta_arg_of_pericenter": 253.3664,
        "meta_mean_anomaly": 106.6581,
        "meta_ephemeris_type": 0,
        "meta_classification_type": "U",
        "meta_norad_cat_id": 66647,
        "meta_element_set_no": 999,
        "meta_rev_at_epoch": 385,
        "meta_bstar": 0.00014002842,
        "meta_mean_motion_dot": 2.9e-07,
        "meta_mean_motion_ddot": 0,
        "tle_line1": "1 66647U 25273A   25360.57128128  .00000029  00000+0  14003-3 0  9999",
        "tle_line2": "2 66647  82.4993 277.8608 0007599 253.3664 106.6581 12.41952312  3856"
      },
      "geometry": {
        "type": "Point",
        "coordinates": [
          100.65722562494416,
          -21.170273504298347
        ]
      }
    },
    {
      "type": "Feature",
      "properties": {
        "norad_id": 66648,
        "name": "COSMOS 2598 (RODNIK-S 23)",
        "group": "last-30-days",
        "lat": -57.46547844176754,
        "lon": -94.19451418258642,
        "alt_km": 1500.8879905627182,
        "timestamp": "2025-12-26T18:39:30.995905+00:00",
        "meta_object_name": "COSMOS 2598 (RODNIK-S 23)",
        "meta_object_id": "2025-273B",
        "meta_epoch": "2025-12-26T15:06:31.967424",
        "meta_mean_motion": 12.43233699,
        "meta_eccentricity": 0.00082439,
        "meta_inclination": 82.5032,
        "meta_ra_of_asc_node": 277.8089,
        "meta_arg_of_pericenter": 203.7688,
        "meta_mean_anomaly": 156.3012,
        "meta_ephemeris_type": 0,
        "meta_classification_type": "U",
        "meta_norad_cat_id": 66648,
        "meta_element_set_no": 999,
        "meta_rev_at_epoch": 386,
        "meta_bstar": 0.00016223022,
        "meta_mean_motion_dot": 3.2e-07,
        "meta_mean_motion_ddot": 0,
        "tle_line1": "1 66648U 25273B   25360.62953666  .00000032  00000+0  16223-3 0  9999",
        "tle_line2": "2 66648  82.5032 277.8089 0008243 203.7688 156.3012 12.43233699  3861"
      },
      "geometry": {
        "type": "Point",
        "coordinates": [
          -94.19451418258642,
          -57.46547844176754
        ]
      }
    },
    {
      "type": "Feature",
      "properties": {
        "norad_id": 66649,
        "name": "COSMOS 2599 (RODNIK-S 24)",
        "group": "last-30-days",
        "lat": 37.345561869033304,
        "lon": 92.00552287408613,
        "alt_km": 1499.6076081388237,
        "timestamp": "2025-12-26T18:39:30.995915+00:00",
        "meta_object_name": "COSMOS 2599 (RODNIK-S 24)",
        "meta_object_id": "2025-273C",
        "meta_epoch": "2025-12-26T14:01:30.173664",
        "meta_mean_motion": 12.41152392,
        "meta_eccentricity": 0.00063467,
        "meta_inclination": 82.505,
        "meta_ra_of_asc_node": 277.8898,
        "meta_arg_of_pericenter": 241.31,
        "meta_mean_anomaly": 118.7341,
        "meta_ephemeris_type": 0,
        "meta_classification_type": "U",
        "meta_norad_cat_id": 66649,
        "meta_element_set_no": 999,
        "meta_rev_at_epoch": 385,
        "meta_bstar": 0.00025939526,
        "meta_mean_motion_dot": 4.5e-07,
        "meta_mean_motion_ddot": 0,
        "tle_line1": "1 66649U 25273C   25360.58437701  .00000045  00000+0  25940-3 0  9992",
        "tle_line2": "2 66649  82.5050 277.8898 0006346 241.3100 118.7341 12.41152392  3853"
      },
      "geometry": {
        "type": "Point",
        "coordinates": [
          92.00552287408613,
          37.345561869033304
        ]
      }
    },
    {
      "type": "Feature",
      "properties": {
        "norad_id": 66650,
        "name": "BEE-1000",
        "group": "last-30-days",
        "lat": 28.285252894780072,
        "lon": -76.48911145284612,
        "alt_km": 599.1082700708366,
        "timestamp": "2025-12-26T18:39:30.995926+00:00",
        "meta_object_name": "BEE-1000",
        "meta_object_id": "2025-274A",
        "meta_epoch": "2025-12-26T00:49:18.623712",
        "meta_mean_motion": 14.91705123,
        "meta_eccentricity": 0.00111777,
        "meta_inclination": 97.7406,
        "meta_ra_of_asc_node": 286.9787,
        "meta_arg_of_pericenter": 202.6994,
        "meta_mean_anomaly": 157.3732,
        "meta_ephemeris_type": 0,
        "meta_classification_type": "U",
        "meta_norad_cat_id": 66650,
        "meta_element_set_no": 999,
        "meta_rev_at_epoch": 438,
        "meta_bstar": 0.0001675141,
        "meta_mean_motion_dot": 1.631e-05,
        "meta_mean_motion_ddot": 0,
        "tle_line1": "1 66650U 25274A   25360.03424333  .00001631  00000+0  16751-3 0  9994",
        "tle_line2": "2 66650  97.7406 286.9787 0011177 202.6994 157.3732 14.91705123  4380"
      },
      "geometry": {
        "type": "Point",
        "coordinates": [
          -76.48911145284612,
          28.285252894780072
        ]
      }
    },
    {
      "type": "Feature",
      "properties": {
        "norad_id": 66651,
        "name": "2025-274B",
        "group": "last-30-days",
        "lat": 41.270850487053735,
        "lon": -79.1429299182377,
        "alt_km": 596.0243135354522,
        "timestamp": "2025-12-26T18:39:30.995936+00:00",
        "meta_object_name": "2025-274B",
        "meta_object_id": "2025-274B",
        "meta_epoch": "2025-12-26T07:12:14.228352",
        "meta_mean_motion": 14.91897006,
        "meta_eccentricity": 0.00113885,
        "meta_inclination": 97.74,
        "meta_ra_of_asc_node": 287.2438,
        "meta_arg_of_pericenter": 199.9093,
        "meta_mean_anomaly": 160.1683,
        "meta_ephemeris_type": 0,
        "meta_classification_type": "U",
        "meta_norad_cat_id": 66651,
        "meta_element_set_no": 999,
        "meta_rev_at_epoch": 442,
        "meta_bstar": 0.00039997042,
        "meta_mean_motion_dot": 3.993e-05,
        "meta_mean_motion_ddot": 0,
        "tle_line1": "1 66651U 25274B   25360.30016468  .00003993  00000+0  39997-3 0  9991",
        "tle_line2": "2 66651  97.7400 287.2438 0011388 199.9093 160.1683 14.91897006  4428"
      },
      "geometry": {
        "type": "Point",
        "coordinates": [
          -79.1429299182377,
          41.270850487053735
        ]
      }
    },
    {
      "type": "Feature",
      "properties": {
        "norad_id": 66652,
        "name": "2025-274C",
        "group": "last-30-days",
        "lat": 53.4258603387434,
        "lon": -82.84396867134761,
        "alt_km": 593.3801928329876,
        "timestamp": "2025-12-26T18:39:30.995946+00:00",
        "meta_object_name": "2025-274C",
        "meta_object_id": "2025-274C",
        "meta_epoch": "2025-12-26T07:08:56.823360",
        "meta_mean_motion": 14.91981433,
        "meta_eccentricity": 0.00109043,
        "meta_inclination": 97.7406,
        "meta_ra_of_asc_node": 287.2484,
        "meta_arg_of_pericenter": 206.5763,
        "meta_mean_anomaly": 153.4899,
        "meta_ephemeris_type": 0,
        "meta_classification_type": "U",
        "meta_norad_cat_id": 66652,
        "meta_element_set_no": 999,
        "meta_rev_at_epoch": 442,
        "meta_bstar": 0.00033765364,
        "meta_mean_motion_dot": 3.369e-05,
        "meta_mean_motion_ddot": 0,
        "tle_line1": "1 66652U 25274C   25360.29787990  .00003369  00000+0  33765-3 0  9999",
        "tle_line2": "2 66652  97.7406 287.2484 0010904 206.5763 153.4899 14.91981433  4420"
      },
      "geometry": {
        "type": "Point",
        "coordinates": [
          -82.84396867134761,
          53.4258603387434
        ]
      }
    },
    {
      "type": "Feature",
      "properties": {
        "norad_id": 66653,
        "name": "2025-274D",
        "group": "last-30-days",
        "lat": 53.70912872653022,
        "lon": -82.9552997021619,
        "alt_km": 593.7255614309743,
        "timestamp": "2025-12-26T18:39:30.995956+00:00",
        "meta_object_name": "2025-274D",
        "meta_object_id": "2025-274D",
        "meta_epoch": "2025-12-26T07:08:51.639360",
        "meta_mean_motion": 14.91969733,
        "meta_eccentricity": 0.00118964,
        "meta_inclination": 97.7404,
        "meta_ra_of_asc_node": 287.2479,
        "meta_arg_of_pericenter": 203.3849,
        "meta_mean_anomaly": 156.6831,
        "meta_ephemeris_type": 0,
        "meta_classification_type": "U",
        "meta_norad_cat_id": 66653,
        "meta_element_set_no": 999,
        "meta_rev_at_epoch": 442,
        "meta_bstar": 0.00025554933,
        "meta_mean_motion_dot": 2.535e-05,
        "meta_mean_motion_ddot": 0,
        "tle_line1": "1 66653U 25274D   25360.29781990  .00002535  00000+0  25555-3 0  9996",
        "tle_line2": "2 66653  97.7404 287.2479 0011896 203.3849 156.6831 14.91969733  4424"
      },
      "geometry": {
        "type": "Point",
        "coordinates": [
          -82.9552997021619,
          53.70912872653022
        ]
      }
    }
  ]
}